     2.11           NAVIGATION DATA     GPS(GPS)            RINEX VERSION / TYPE
cnvtToRINEX 3.14.0  convertToRINEX OPR  20220810 190506 UTC PGM / RUN BY / DATE 
----------------------------------------------------------- COMMENT             
    0.7451D-08  0.2235D-07 -0.5960D-07 -0.1192D-06          ION ALPHA           
    0.9216D+05  0.1311D+06 -0.6554D+05 -0.5243D+06          ION BETA            
   -0.931322574615D-09-0.799360577730D-14   233472     2217 DELTA-UTC: A0,A1,T,W
    18                                                      LEAP SECONDS        
                                                            END OF HEADER       
 7 22 07 03 14 00  0.0 0.320457387716D-03-0.102318153949D-11 0.000000000000D+00
    0.680000000000D+02 0.173437500000D+02 0.498985070445D-08 0.133667614878D-01
    0.106170773506D-05 0.162869830383D-01 0.680610537529D-05 0.515364597893D+04
    0.504000000000D+05-0.186264514923D-07-0.128029399279D+01 0.292435288429D-06
    0.950300303731D+00 0.246343750000D+03-0.225516766296D+01-0.841392190219D-08
    0.378587198248D-09 0.100000000000D+01 0.221700000000D+04 0.000000000000D+00
    0.200000000000D+01 0.000000000000D+00-0.111758708954D-07 0.680000000000D+02
    0.435120000000D+05 0.400000000000D+01 0.000000000000D+00 0.000000000000D+00
 4 22 07 03 14 00  0.0-0.150228384882D-03 0.432009983342D-11 0.000000000000D+00
    0.207000000000D+03-0.577187500000D+02 0.416160191885D-08 0.246754370982D+01
   -0.296719372272D-05 0.186509487685D-02 0.104736536741D-04 0.515360351563D+04
    0.504000000000D+05 0.111758708954D-07-0.229821796269D+01-0.372529029846D-08
    0.961475981128D+00 0.178656250000D+03-0.298248824925D+01-0.777425240025D-08
    0.194650965137D-09 0.100000000000D+01 0.221700000000D+04 0.000000000000D+00
    0.400000000000D+01 0.000000000000D+00-0.465661287308D-08 0.463000000000D+03
    0.435180000000D+05 0.400000000000D+01 0.000000000000D+00 0.000000000000D+00
 3 22 07 03 14 00  0.0-0.296974554658D-03-0.110276232590D-10 0.000000000000D+00
    0.380000000000D+02-0.872187500000D+02 0.433946647048D-08-0.438164629921D+00
   -0.456906855106D-05 0.435399881098D-02 0.450015068054D-05 0.515359889412D+04
    0.504000000000D+05-0.186264514923D-08 0.290397049254D+01 0.856816768646D-07
    0.974695811513D+00 0.297281250000D+03 0.988966589079D+00-0.820927052050D-08
   -0.311441544219D-09 0.100000000000D+01 0.221700000000D+04 0.000000000000D+00
    0.200000000000D+01 0.000000000000D+00 0.186264514923D-08 0.380000000000D+02
    0.435180000000D+05 0.400000000000D+01 0.000000000000D+00 0.000000000000D+00
16 22 07 03 14 00  0.0-0.513095408678D-03-0.238742359215D-11 0.000000000000D+00
    0.460000000000D+02 0.140625000000D+01 0.447090051667D-08-0.245162298449D+01
   -0.305473804474D-06 0.126957498724D-01 0.798329710960D-05 0.515367089462D+04
    0.504000000000D+05 0.162050127983D-06-0.148392739690D+00-0.184401869774D-06
    0.968941772886D+00 0.228781250000D+03 0.730660248326D+00-0.776603777236D-08
   -0.233938315898D-09 0.100000000000D+01 0.221700000000D+04 0.000000000000D+00
    0.200000000000D+01 0.000000000000D+00-0.102445483208D-07 0.460000000000D+02
    0.435480000000D+05 0.400000000000D+01 0.000000000000D+00 0.000000000000D+00
 1 22 07 03 14 00  0.0 0.328755937517D-03-0.761701812735D-11 0.000000000000D+00
    0.930000000000D+02 0.570625000000D+02 0.422160441820D-08 0.664256793350D+00
    0.318512320518D-05 0.120204684790D-01 0.395067036152D-05 0.515366261482D+04
    0.504000000000D+05-0.558793544769D-07 0.187023879456D+01 0.763684511185D-07
    0.987841338825D+00 0.316343750000D+03 0.928213083184D+00-0.829498837670D-08
    0.642883921553D-11 0.100000000000D+01 0.221700000000D+04 0.000000000000D+00
    0.200000000000D+01 0.000000000000D+00 0.512227416039D-08 0.930000000000D+02
    0.435480000000D+05 0.400000000000D+01 0.000000000000D+00 0.000000000000D+00
26 22 07 03 14 00  0.0 0.216074287891D-03 0.227373675443D-11 0.000000000000D+00
    0.750000000000D+02-0.500000000000D+01 0.525521890096D-08-0.159006302666D+01
   -0.536441802979D-06 0.696678552777D-02 0.686198472977D-05 0.515376903343D+04
    0.504000000000D+05 0.614672899246D-07-0.294800984193D+00-0.894069671631D-07
    0.937306821883D+00 0.230437500000D+03 0.386271170339D+00-0.828248785601D-08
   -0.201436962087D-09 0.100000000000D+01 0.221700000000D+04 0.000000000000D+00
    0.200000000000D+01 0.000000000000D+00 0.698491930962D-08 0.750000000000D+02
    0.435480000000D+05 0.400000000000D+01 0.000000000000D+00 0.000000000000D+00
 9 22 07 03 14 00  0.0-0.322677660733D-03 0.363797880709D-11 0.000000000000D+00
    0.610000000000D+02-0.620937500000D+02 0.426267755763D-08-0.289398756298D+01
   -0.313296914101D-05 0.220384960994D-02 0.103935599327D-04 0.515380811501D+04
    0.504000000000D+05 0.186264514923D-07-0.235228609535D+01-0.707805156708D-07
    0.954591384780D+00 0.177281250000D+03 0.190499585413D+01-0.776818071876D-08
    0.146791828755D-09 0.100000000000D+01 0.221700000000D+04 0.000000000000D+00
    0.200000000000D+01 0.000000000000D+00 0.139698386192D-08 0.610000000000D+02
    0.435960000000D+05 0.400000000000D+01 0.000000000000D+00 0.000000000000D+00
 6 22 07 03 14 00  0.0 0.369300134480D-03 0.160298441187D-10 0.000000000000D+00
    0.670000000000D+02 0.520312500000D+02 0.411302846700D-08 0.896309923706D+00
    0.257976353168D-05 0.246861740015D-02 0.378303229809D-05 0.515375176430D+04
    0.504000000000D+05-0.186264514923D-07 0.186195678522D+01-0.447034835815D-07
    0.987168893901D+00 0.319312500000D+03-0.861295560257D+00-0.801247660895D-08
    0.442875590403D-10 0.100000000000D+01 0.221700000000D+04 0.000000000000D+00
    0.200000000000D+01 0.000000000000D+00 0.372529029846D-08 0.670000000000D+02
    0.440280000000D+05 0.400000000000D+01 0.000000000000D+00 0.000000000000D+00
30 22 07 03 14 00  0.0-0.533090438694D-03-0.909494701773D-12 0.000000000000D+00
    0.280000000000D+02 0.195937500000D+02 0.525521890096D-08-0.475834600764D-01
    0.114552676678D-05 0.592875492293D-02 0.649131834507D-05 0.515374104309D+04
    0.504000000000D+05 0.894069671631D-07-0.126922591741D+01 0.577419996262D-07
    0.935450225234D+00 0.241062500000D+03-0.266435856687D+01-0.842499379195D-08
    0.388587614805D-09 0.100000000000D+01 0.221700000000D+04 0.000000000000D+00
    0.200000000000D+01 0.000000000000D+00 0.372529029846D-08 0.280000000000D+02
    0.452280000000D+05 0.400000000000D+01 0.000000000000D+00 0.000000000000D+00
